STARLINK-35410          
1 66024U 25232V   25301.66674769 -.01662952  00000+0 -11592-1 0  9995
2 66024  53.1549   1.3734 0000998  69.1303 267.2517 15.76454552  2302
STARLINK-35280          
1 66025U 25232W   25301.66674769 -.01744206  00000+0 -12154-1 0  9994
2 66025  53.1549   1.3773 0000931  72.2586 261.9442 15.76605015  2244
STARLINK-34812          
1 66026U 25232X   25301.66674769 -.01680084  00000+0 -11742-1 0  9990
2 66026  53.1556   1.3692 0000968  69.2486 269.1282 15.76426712  2256
STARLINK-35341          
1 66027U 25232Y   25301.66674769 -.01721779  00000+0 -12127-1 0  9996
2 66027  53.1553   1.3645 0001005  57.1732 283.3712 15.76325401  2300
STARLINK-35339          
1 66028U 25232Z   25301.66674769 -.01749330  00000+0 -12382-1 0  9993
2 66028  53.1554   1.3599 0001003  58.6691 283.9428 15.76262558  2244
STARLINK-35399          
1 66029U 25232AA  25301.66674769 -.01779532  00000+0 -12664-1 0  9994
2 66029  53.1556   1.3561 0000834  66.3345 278.3479 15.76197030  2245
STARLINK-35431          
1 66030U 25232AB  25301.66674769 -.01745814  00000+0 -12447-1 0  9991
2 66030  53.1547   1.3507 0000722  68.5512 278.2267 15.76097725  2247
STARLINK-35326          
1 66031U 25232AC  25301.66674769 -.01762027  00000+0 -12606-1 0  9994
2 66031  53.1556   1.3476 0000851  72.1713 276.6128 15.76046843  2300
STARLINK-35311          
1 66032U 25232AD  25301.66674769 -.01808415  00000+0 -13036-1 0  9995
2 66032  53.1553   1.3428 0000981  62.3746 288.5005 15.75958064  2308
2025-234A               
1 66053U 25234A   25301.59524694  .00031767  00000+0  13899-2 0  9996
2 66053  97.4620   7.1898 0014317 253.3231 106.6434 15.21900367  1445
2025-234B               
1 66054U 25234B   25301.59836942  .00008879  00000+0  40187-3 0  9998
2 66054  97.5045   7.2327 0013664 246.1008 113.8796 15.21051237  1446
2025-234C               
1 66055U 25234C   25301.59792898  .00007161  00000+0  32294-3 0  9993
2 66055  97.4569   7.1809 0014329 248.4210 111.5499 15.21238117  1449
