CCSDS_OMM_VERS = 2.0
CREATION_DATE  = 
ORIGINATOR     = 

OBJECT_NAME    = STARLINK-35410
OBJECT_ID      = 2025-232V
CENTER_NAME    = EARTH
REF_FRAME      = TEME
TIME_SYSTEM    = UTC
MEAN_ELEMENT_THEORY = SGP/SGP4

EPOCH          = 2025-10-28T16:00:07.000416
MEAN_MOTION    = 15.76454552
ECCENTRICITY   = .00009988
INCLINATION    = 53.1549
RA_OF_ASC_NODE = 1.3734
ARG_OF_PERICENTER = 69.1303
MEAN_ANOMALY   = 267.2517

EPHEMERIS_TYPE = 0
CLASSIFICATION_TYPE = U
NORAD_CAT_ID   = 66024
ELEMENT_SET_NO = 999
REV_AT_EPOCH   = 230
BSTAR          = -.11592279E-1
MEAN_MOTION_DOT = -.1662952E-1
MEAN_MOTION_DDOT = 0

CCSDS_OMM_VERS = 2.0
CREATION_DATE  = 
ORIGINATOR     = 

OBJECT_NAME    = STARLINK-35280
OBJECT_ID      = 2025-232W
CENTER_NAME    = EARTH
REF_FRAME      = TEME
TIME_SYSTEM    = UTC
MEAN_ELEMENT_THEORY = SGP/SGP4

EPOCH          = 2025-10-28T16:00:07.000416
MEAN_MOTION    = 15.76605015
ECCENTRICITY   = .00009313
INCLINATION    = 53.1549
RA_OF_ASC_NODE = 1.3773
ARG_OF_PERICENTER = 72.2586
MEAN_ANOMALY   = 261.9442

EPHEMERIS_TYPE = 0
CLASSIFICATION_TYPE = U
NORAD_CAT_ID   = 66025
ELEMENT_SET_NO = 999
REV_AT_EPOCH   = 224
BSTAR          = -.12153982E-1
MEAN_MOTION_DOT = -.1744206E-1
MEAN_MOTION_DDOT = 0

CCSDS_OMM_VERS = 2.0
CREATION_DATE  = 
ORIGINATOR     = 

OBJECT_NAME    = STARLINK-34812
OBJECT_ID      = 2025-232X
CENTER_NAME    = EARTH
REF_FRAME      = TEME
TIME_SYSTEM    = UTC
MEAN_ELEMENT_THEORY = SGP/SGP4

EPOCH          = 2025-10-28T16:00:07.000416
MEAN_MOTION    = 15.76426712
ECCENTRICITY   = .0000968
INCLINATION    = 53.1556
RA_OF_ASC_NODE = 1.3692
ARG_OF_PERICENTER = 69.2486
MEAN_ANOMALY   = 269.1282

EPHEMERIS_TYPE = 0
CLASSIFICATION_TYPE = U
NORAD_CAT_ID   = 66026
ELEMENT_SET_NO = 999
REV_AT_EPOCH   = 225
BSTAR          = -.11741947E-1
MEAN_MOTION_DOT = -.1680084E-1
MEAN_MOTION_DDOT = 0

CCSDS_OMM_VERS = 2.0
CREATION_DATE  = 
ORIGINATOR     = 

OBJECT_NAME    = STARLINK-35341
OBJECT_ID      = 2025-232Y
CENTER_NAME    = EARTH
REF_FRAME      = TEME
TIME_SYSTEM    = UTC
MEAN_ELEMENT_THEORY = SGP/SGP4

EPOCH          = 2025-10-28T16:00:07.000416
MEAN_MOTION    = 15.76325401
ECCENTRICITY   = .00010054
INCLINATION    = 53.1553
RA_OF_ASC_NODE = 1.3645
ARG_OF_PERICENTER = 57.1732
MEAN_ANOMALY   = 283.3712

EPHEMERIS_TYPE = 0
CLASSIFICATION_TYPE = U
NORAD_CAT_ID   = 66027
ELEMENT_SET_NO = 999
REV_AT_EPOCH   = 230
BSTAR          = -.12126824E-1
MEAN_MOTION_DOT = -.1721779E-1
MEAN_MOTION_DDOT = 0

CCSDS_OMM_VERS = 2.0
CREATION_DATE  = 
ORIGINATOR     = 

OBJECT_NAME    = STARLINK-35339
OBJECT_ID      = 2025-232Z
CENTER_NAME    = EARTH
REF_FRAME      = TEME
TIME_SYSTEM    = UTC
MEAN_ELEMENT_THEORY = SGP/SGP4

EPOCH          = 2025-10-28T16:00:07.000416
MEAN_MOTION    = 15.76262558
ECCENTRICITY   = .00010038
INCLINATION    = 53.1554
RA_OF_ASC_NODE = 1.3599
ARG_OF_PERICENTER = 58.6691
MEAN_ANOMALY   = 283.9428

EPHEMERIS_TYPE = 0
CLASSIFICATION_TYPE = U
NORAD_CAT_ID   = 66028
ELEMENT_SET_NO = 999
REV_AT_EPOCH   = 224
BSTAR          = -.123821E-1
MEAN_MOTION_DOT = -.174933E-1
MEAN_MOTION_DDOT = 0

CCSDS_OMM_VERS = 2.0
CREATION_DATE  = 
ORIGINATOR     = 

OBJECT_NAME    = STARLINK-35399
OBJECT_ID      = 2025-232AA
CENTER_NAME    = EARTH
REF_FRAME      = TEME
TIME_SYSTEM    = UTC
MEAN_ELEMENT_THEORY = SGP/SGP4

EPOCH          = 2025-10-28T16:00:07.000416
MEAN_MOTION    = 15.76197030
ECCENTRICITY   = .0000834
INCLINATION    = 53.1556
RA_OF_ASC_NODE = 1.3561
ARG_OF_PERICENTER = 66.3345
MEAN_ANOMALY   = 278.3479

EPHEMERIS_TYPE = 0
CLASSIFICATION_TYPE = U
NORAD_CAT_ID   = 66029
ELEMENT_SET_NO = 999
REV_AT_EPOCH   = 224
BSTAR          = -.12663824E-1
MEAN_MOTION_DOT = -.1779532E-1
MEAN_MOTION_DDOT = 0

CCSDS_OMM_VERS = 2.0
CREATION_DATE  = 
ORIGINATOR     = 

OBJECT_NAME    = STARLINK-35431
OBJECT_ID      = 2025-232AB
CENTER_NAME    = EARTH
REF_FRAME      = TEME
TIME_SYSTEM    = UTC
MEAN_ELEMENT_THEORY = SGP/SGP4

EPOCH          = 2025-10-28T16:00:07.000416
MEAN_MOTION    = 15.76097725
ECCENTRICITY   = .00007224
INCLINATION    = 53.1547
RA_OF_ASC_NODE = 1.3507
ARG_OF_PERICENTER = 68.5512
MEAN_ANOMALY   = 278.2267

EPHEMERIS_TYPE = 0
CLASSIFICATION_TYPE = U
NORAD_CAT_ID   = 66030
ELEMENT_SET_NO = 999
REV_AT_EPOCH   = 224
BSTAR          = -.12446507E-1
MEAN_MOTION_DOT = -.1745814E-1
MEAN_MOTION_DDOT = 0

CCSDS_OMM_VERS = 2.0
CREATION_DATE  = 
ORIGINATOR     = 

OBJECT_NAME    = STARLINK-35326
OBJECT_ID      = 2025-232AC
CENTER_NAME    = EARTH
REF_FRAME      = TEME
TIME_SYSTEM    = UTC
MEAN_ELEMENT_THEORY = SGP/SGP4

EPOCH          = 2025-10-28T16:00:07.000416
MEAN_MOTION    = 15.76046843
ECCENTRICITY   = .00008514
INCLINATION    = 53.1556
RA_OF_ASC_NODE = 1.3476
ARG_OF_PERICENTER = 72.1713
MEAN_ANOMALY   = 276.6128

EPHEMERIS_TYPE = 0
CLASSIFICATION_TYPE = U
NORAD_CAT_ID   = 66031
ELEMENT_SET_NO = 999
REV_AT_EPOCH   = 230
BSTAR          = -.12605884E-1
MEAN_MOTION_DOT = -.1762027E-1
MEAN_MOTION_DDOT = 0

CCSDS_OMM_VERS = 2.0
CREATION_DATE  = 
ORIGINATOR     = 

OBJECT_NAME    = STARLINK-35311
OBJECT_ID      = 2025-232AD
CENTER_NAME    = EARTH
REF_FRAME      = TEME
TIME_SYSTEM    = UTC
MEAN_ELEMENT_THEORY = SGP/SGP4

EPOCH          = 2025-10-28T16:00:07.000416
MEAN_MOTION    = 15.75958064
ECCENTRICITY   = .00009815
INCLINATION    = 53.1553
RA_OF_ASC_NODE = 1.3428
ARG_OF_PERICENTER = 62.3746
MEAN_ANOMALY   = 288.5005

EPHEMERIS_TYPE = 0
CLASSIFICATION_TYPE = U
NORAD_CAT_ID   = 66032
ELEMENT_SET_NO = 999
REV_AT_EPOCH   = 230
BSTAR          = -.13035905E-1
MEAN_MOTION_DOT = -.1808415E-1
MEAN_MOTION_DDOT = 0

CCSDS_OMM_VERS = 2.0
CREATION_DATE  = 
ORIGINATOR     = 

OBJECT_NAME    = 2025-234A
OBJECT_ID      = 2025-234A
CENTER_NAME    = EARTH
REF_FRAME      = TEME
TIME_SYSTEM    = UTC
MEAN_ELEMENT_THEORY = SGP/SGP4

EPOCH          = 2025-10-28T14:17:09.335616
MEAN_MOTION    = 15.21900367
ECCENTRICITY   = .00143178
INCLINATION    = 97.4620
RA_OF_ASC_NODE = 7.1898
ARG_OF_PERICENTER = 253.3231
MEAN_ANOMALY   = 106.6434

EPHEMERIS_TYPE = 0
CLASSIFICATION_TYPE = U
NORAD_CAT_ID   = 66053
ELEMENT_SET_NO = 999
REV_AT_EPOCH   = 144
BSTAR          = .13899245E-2
MEAN_MOTION_DOT = .31767E-3
MEAN_MOTION_DDOT = 0

CCSDS_OMM_VERS = 2.0
CREATION_DATE  = 
ORIGINATOR     = 

OBJECT_NAME    = 2025-234B
OBJECT_ID      = 2025-234B
CENTER_NAME    = EARTH
REF_FRAME      = TEME
TIME_SYSTEM    = UTC
MEAN_ELEMENT_THEORY = SGP/SGP4

EPOCH          = 2025-10-28T14:21:39.117888
MEAN_MOTION    = 15.21051237
ECCENTRICITY   = .00136646
INCLINATION    = 97.5045
RA_OF_ASC_NODE = 7.2327
ARG_OF_PERICENTER = 246.1008
MEAN_ANOMALY   = 113.8796

EPHEMERIS_TYPE = 0
CLASSIFICATION_TYPE = U
NORAD_CAT_ID   = 66054
ELEMENT_SET_NO = 999
REV_AT_EPOCH   = 144
BSTAR          = .40187056E-3
MEAN_MOTION_DOT = .8879E-4
MEAN_MOTION_DDOT = 0

CCSDS_OMM_VERS = 2.0
CREATION_DATE  = 
ORIGINATOR     = 

OBJECT_NAME    = 2025-234C
OBJECT_ID      = 2025-234C
CENTER_NAME    = EARTH
REF_FRAME      = TEME
TIME_SYSTEM    = UTC
MEAN_ELEMENT_THEORY = SGP/SGP4

EPOCH          = 2025-10-28T14:21:01.063872
MEAN_MOTION    = 15.21238117
ECCENTRICITY   = .00143298
INCLINATION    = 97.4569
RA_OF_ASC_NODE = 7.1809
ARG_OF_PERICENTER = 248.4210
MEAN_ANOMALY   = 111.5499

EPHEMERIS_TYPE = 0
CLASSIFICATION_TYPE = U
NORAD_CAT_ID   = 66055
ELEMENT_SET_NO = 999
REV_AT_EPOCH   = 144
BSTAR          = .32293946E-3
MEAN_MOTION_DOT = .7161E-4
MEAN_MOTION_DDOT = 0

